STARLINK-32826          
1 62970U 25029Y   26068.70541742  .00038165  00000+0  12937-2 0  9990
2 62970  53.1603 232.1196 0001582  32.5798 327.5300 15.30208080 61327
ARCSTONE                
1 64540U 25135N   26068.88991918  .00026427  00000+0  94900-3 0  9995
2 64540  97.4495 185.9194 0004120 166.7863 193.3485 15.28638458 39847
